HST                     
1 20580U 90037B   26068.15977042  .00009063  00000+0  30023-3 0  9999
2 20580  28.4717  43.6133 0001837 120.9992 239.0785 15.29473555773239
STARLINK-32235          
1 60739U 24152V   26068.72452492 -.00004827  00000+0 -15117-3 0  9996
2 60739  53.1586 268.4462 0001079  89.0280 271.0845 15.30156512 86809
